start=new Date('2023-02-16T00:00:00.000Z').valueOf();
sats=[{"TLE_LINE1":"1 47659U 21012AR  23046.90840513  .00062920  00000-0  41986-2 0  9991","SEMIMAJOR_AXIS":"6925.163","ARG_OF_PERICENTER":"136.9777","CENTER_NAME":"EARTH","SITE":"AFETR","MEAN_MOTION":"15.06460642","RA_OF_ASC_NODE":"289.5357","REF_FRAME":"TEME","NORAD_CAT_ID":"47659","MEAN_ANOMALY":"223.1309","EPHEMERIS_TYPE":"0","TIME_SYSTEM":"UTC","BSTAR":"0.00419860000000","OBJECT_TYPE":"PAYLOAD","FILE":"3795153","REV_AT_EPOCH":"11316","GP_ID":"225551263","ECCENTRICITY":"0.00012370","MEAN_MOTION_DOT":"0.00062920","RCS_SIZE":"LARGE","APOAPSIS":"547.884","INCLINATION":"53.0532","PERIAPSIS":"546.171","LAUNCH_DATE":"2021-02-16","ELEMENT_SET_NO":"999","MEAN_MOTION_DDOT":"0.0000000000000","OBJECT_ID":"2021-012AR","OBJECT_NAME":"STARLINK-2043","CLASSIFICATION_TYPE":"U","TLE_LINE2":"2 47659  53.0532 289.5357 0001237 136.9777 223.1309 15.06460642113169","PERIOD":"95.588","EPOCH":"2023-02-15T21:48:06.203232","MEAN_ELEMENT_THEORY":"SGP4","DECAY_DATE":null,"COUNTRY_CODE":"US"},{"OBJECT_ID":"2021-012AS","MEAN_MOTION_DDOT":"0.0000000000000","ELEMENT_SET_NO":"999","LAUNCH_DATE":"2021-02-16","PERIAPSIS":"546.364","INCLINATION":"53.0520","RCS_SIZE":"LARGE","APOAPSIS":"547.975","COUNTRY_CODE":"US","DECAY_DATE":null,"MEAN_ELEMENT_THEORY":"SGP4","EPOCH":"2023-02-15T22:16:03.467424","PERIOD":"95.591","TLE_LINE2":"2 47660  53.0520 280.0688 0001163  87.9481 272.1641 15.06414377113309","CLASSIFICATION_TYPE":"U","OBJECT_NAME":"STARLINK-2044","REF_FRAME":"TEME","RA_OF_ASC_NODE":"280.0688","MEAN_MOTION":"15.06414377","SITE":"AFETR","CENTER_NAME":"EARTH","ARG_OF_PERICENTER":"87.9481","SEMIMAJOR_AXIS":"6925.304","TLE_LINE1":"1 47660U 21012AS  23046.92781791  .00006669  00000-0  46597-3 0  9999","MEAN_MOTION_DOT":"0.00006669","ECCENTRICITY":"0.00011630","GP_ID":"225550026","REV_AT_EPOCH":"11330","FILE":"3795153","OBJECT_TYPE":"PAYLOAD","BSTAR":"0.00046597000000","NORAD_CAT_ID":"47660","EPHEMERIS_TYPE":"0","MEAN_ANOMALY":"272.1641","TIME_SYSTEM":"UTC"},{"MEAN_MOTION_DOT":"0.00004659","ECCENTRICITY":"0.00021000","GP_ID":"225550274","BSTAR":"0.00033146000000","NORAD_CAT_ID":"47661","EPHEMERIS_TYPE":"0","MEAN_ANOMALY":"259.2197","TIME_SYSTEM":"UTC","REV_AT_EPOCH":"11177","FILE":"3795153","OBJECT_TYPE":"PAYLOAD","MEAN_MOTION":"15.06398591","REF_FRAME":"TEME","RA_OF_ASC_NODE":"29.5078","ARG_OF_PERICENTER":"100.9028","SEMIMAJOR_AXIS":"6925.353","TLE_LINE1":"1 47661U 21012AT  23046.91391705  .00004659  00000-0  33146-3 0  9994","SITE":"AFETR","CENTER_NAME":"EARTH","MEAN_ELEMENT_THEORY":"SGP4","COUNTRY_CODE":"US","DECAY_DATE":null,"CLASSIFICATION_TYPE":"U","TLE_LINE2":"2 47661  53.0548  29.5078 0002100 100.9028 259.2197 15.06398591111774","OBJECT_NAME":"STARLINK-2051","EPOCH":"2023-02-15T21:56:02.433120","PERIOD":"95.592","ELEMENT_SET_NO":"999","LAUNCH_DATE":"2021-02-16","OBJECT_ID":"2021-012AT","MEAN_MOTION_DDOT":"0.0000000000000","APOAPSIS":"548.672","RCS_SIZE":"LARGE","PERIAPSIS":"545.764","INCLINATION":"53.0548"},{"NORAD_CAT_ID":"47662","EPHEMERIS_TYPE":"0","MEAN_ANOMALY":"257.1658","TIME_SYSTEM":"UTC","BSTAR":"0.00185660000000","OBJECT_TYPE":"PAYLOAD","FILE":"3793880","REV_AT_EPOCH":"11120","ECCENTRICITY":"0.00013710","GP_ID":"225500364","MEAN_MOTION_DOT":"0.00027497","TLE_LINE1":"1 47662U 21012AU  23046.43011402  .00027497  00000-0  18566-2 0  9998","SEMIMAJOR_AXIS":"6925.282","ARG_OF_PERICENTER":"102.9484","CENTER_NAME":"EARTH","SITE":"AFETR","MEAN_MOTION":"15.06421651","RA_OF_ASC_NODE":"31.6873","REF_FRAME":"TEME","OBJECT_NAME":"STARLINK-2052","CLASSIFICATION_TYPE":"U","TLE_LINE2":"2 47662  53.0547  31.6873 0001371 102.9484 257.1658 15.06421651111209","PERIOD":"95.591","EPOCH":"2023-02-15T10:19:21.851328","MEAN_ELEMENT_THEORY":"SGP4","DECAY_DATE":null,"COUNTRY_CODE":"US","RCS_SIZE":"LARGE","APOAPSIS":"548.097","INCLINATION":"53.0547","PERIAPSIS":"546.198","LAUNCH_DATE":"2021-02-16","ELEMENT_SET_NO":"999","MEAN_MOTION_DDOT":"0.0000000000000","OBJECT_ID":"2021-012AU"},{"TLE_LINE1":"1 47663U 21012AV  23046.89184533  .00007515  00000-0  52279-3 0  9994","ARG_OF_PERICENTER":"116.6335","SEMIMAJOR_AXIS":"6925.330","CENTER_NAME":"EARTH","SITE":"AFETR","MEAN_MOTION":"15.06405932","RA_OF_ASC_NODE":"309.9278","REF_FRAME":"TEME","NORAD_CAT_ID":"47663","EPHEMERIS_TYPE":"0","MEAN_ANOMALY":"243.4805","TIME_SYSTEM":"UTC","BSTAR":"0.00052279000000","FILE":"3795153","OBJECT_TYPE":"PAYLOAD","REV_AT_EPOCH":"11290","GP_ID":"225551757","ECCENTRICITY":"0.00014700","MEAN_MOTION_DOT":"0.00007515","APOAPSIS":"548.213","RCS_SIZE":"LARGE","INCLINATION":"53.0518","PERIAPSIS":"546.177","LAUNCH_DATE":"2021-02-16","ELEMENT_SET_NO":"999","MEAN_MOTION_DDOT":"0.0000000000000","OBJECT_ID":"2021-012AV","CLASSIFICATION_TYPE":"U","TLE_LINE2":"2 47663  53.0518 309.9278 0001470 116.6335 243.4805 15.06405932112909","OBJECT_NAME":"STARLINK-2053","EPOCH":"2023-02-15T21:24:15.436512","PERIOD":"95.592","MEAN_ELEMENT_THEORY":"SGP4","DECAY_DATE":null,"COUNTRY_CODE":"US"},{"MEAN_MOTION_DOT":"0.00027062","GP_ID":"225490774","ECCENTRICITY":"0.00014410","REV_AT_EPOCH":"11172","FILE":"3793706","OBJECT_TYPE":"PAYLOAD","BSTAR":"0.00182750000000","NORAD_CAT_ID":"47664","MEAN_ANOMALY":"257.1358","EPHEMERIS_TYPE":"0","TIME_SYSTEM":"UTC","REF_FRAME":"TEME","RA_OF_ASC_NODE":"31.6775","MEAN_MOTION":"15.06424482","SITE":"AFETR","CENTER_NAME":"EARTH","ARG_OF_PERICENTER":"102.9792","SEMIMAJOR_AXIS":"6925.274","TLE_LINE1":"1 47664U 21012AW  23046.43105952  .00027062  00000-0  18275-2 0  9999","COUNTRY_CODE":"US","DECAY_DATE":null,"MEAN_ELEMENT_THEORY":"SGP4","EPOCH":"2023-02-15T10:20:43.542528","PERIOD":"95.591","TLE_LINE2":"2 47664  53.0540  31.6775 0001441 102.9792 257.1358 15.06424482111724","CLASSIFICATION_TYPE":"U","OBJECT_NAME":"STARLINK-2054","OBJECT_ID":"2021-012AW","MEAN_MOTION_DDOT":"0.0000000000000","ELEMENT_SET_NO":"999","LAUNCH_DATE":"2021-02-16","PERIAPSIS":"546.141","INCLINATION":"53.0540","RCS_SIZE":"LARGE","APOAPSIS":"548.136"},{"LAUNCH_DATE":"2021-02-16","ELEMENT_SET_NO":"999","MEAN_MOTION_DDOT":"0.0000000000000","OBJECT_ID":"2021-012AX","RCS_SIZE":"LARGE","APOAPSIS":"548.195","INCLINATION":"53.0515","PERIAPSIS":"546.183","MEAN_ELEMENT_THEORY":"SGP4","DECAY_DATE":null,"COUNTRY_CODE":"US","TLE_LINE2":"2 47665  53.0515  24.4378 0001453 100.9885 259.1267 15.06408020111866","CLASSIFICATION_TYPE":"U","OBJECT_NAME":"STARLINK-2056","EPOCH":"2023-02-15T22:36:31.473216","PERIOD":"95.592","MEAN_MOTION":"15.06408020","RA_OF_ASC_NODE":"24.4378","REF_FRAME":"TEME","TLE_LINE1":"1 47665U 21012AX  23046.94203094  .00005962  00000-0  41873-3 0  9998","ARG_OF_PERICENTER":"100.9885","SEMIMAJOR_AXIS":"6925.324","CENTER_NAME":"EARTH","SITE":"AFETR","ECCENTRICITY":"0.00014530","GP_ID":"225550768","MEAN_MOTION_DOT":"0.00005962","EPHEMERIS_TYPE":"0","NORAD_CAT_ID":"47665","MEAN_ANOMALY":"259.1267","TIME_SYSTEM":"UTC","BSTAR":"0.00041873000000","FILE":"3795153","OBJECT_TYPE":"PAYLOAD","REV_AT_EPOCH":"11186"},{"FILE":"3795153","OBJECT_TYPE":"PAYLOAD","REV_AT_EPOCH":"11182","MEAN_ANOMALY":"257.3070","NORAD_CAT_ID":"47666","EPHEMERIS_TYPE":"0","TIME_SYSTEM":"UTC","BSTAR":"0.00018286000000","ECCENTRICITY":"0.00013810","GP_ID":"225551022","MEAN_MOTION_DOT":"0.00002444","CENTER_NAME":"EARTH","SITE":"AFETR","TLE_LINE1":"1 47666U 21012AY  23046.67299170  .00002444  00000-0  18286-3 0  9993","ARG_OF_PERICENTER":"102.8073","SEMIMAJOR_AXIS":"6925.329","RA_OF_ASC_NODE":"25.9514","REF_FRAME":"TEME","MEAN_MOTION":"15.06406463","EPOCH":"2023-02-15T16:09:06.482880","PERIOD":"95.592","CLASSIFICATION_TYPE":"U","TLE_LINE2":"2 47666  53.0554  25.9514 0001381 102.8073 257.3070 15.06406463111825","OBJECT_NAME":"STARLINK-2057","DECAY_DATE":null,"COUNTRY_CODE":"US","MEAN_ELEMENT_THEORY":"SGP4","INCLINATION":"53.0554","PERIAPSIS":"546.237","RCS_SIZE":"LARGE","APOAPSIS":"548.150","MEAN_MOTION_DDOT":"0.0000000000000","OBJECT_ID":"2021-012AY","LAUNCH_DATE":"2021-02-16","ELEMENT_SET_NO":"999"},{"GP_ID":"225551264","ECCENTRICITY":"0.00013430","MEAN_MOTION_DOT":"0.00001345","MEAN_ANOMALY":"262.1479","NORAD_CAT_ID":"47667","EPHEMERIS_TYPE":"0","TIME_SYSTEM":"UTC","BSTAR":"0.00010916000000","FILE":"3795153","OBJECT_TYPE":"PAYLOAD","REV_AT_EPOCH":"11146","MEAN_MOTION":"15.06402828","RA_OF_ASC_NODE":"50.3425","REF_FRAME":"TEME","TLE_LINE1":"1 47667U 21012AZ  23046.72777960  .00001345  00000-0  10916-3 0  9999","ARG_OF_PERICENTER":"97.9662","SEMIMAJOR_AXIS":"6925.340","CENTER_NAME":"EARTH","SITE":"AFETR","MEAN_ELEMENT_THEORY":"SGP4","DECAY_DATE":null,"COUNTRY_CODE":"US","CLASSIFICATION_TYPE":"U","TLE_LINE2":"2 47667  53.0532  50.3425 0001343  97.9662 262.1479 15.06402828111469","OBJECT_NAME":"STARLINK-2058","EPOCH":"2023-02-15T17:28:00.157440","PERIOD":"95.592","LAUNCH_DATE":"2021-02-16","ELEMENT_SET_NO":"999","MEAN_MOTION_DDOT":"0.0000000000000","OBJECT_ID":"2021-012AZ","APOAPSIS":"548.135","RCS_SIZE":"LARGE","INCLINATION":"53.0532","PERIAPSIS":"546.275"},{"MEAN_ELEMENT_THEORY":"SGP4","COUNTRY_CODE":"US","DECAY_DATE":null,"OBJECT_NAME":"STARLINK-2059","CLASSIFICATION_TYPE":"U","TLE_LINE2":"2 47668  53.0552  31.6472 0001439  81.5279 278.5873 15.06425384111725","PERIOD":"95.591","EPOCH":"2023-02-15T10:31:20.611200","ELEMENT_SET_NO":"999","LAUNCH_DATE":"2021-02-16","OBJECT_ID":"2021-012BA","MEAN_MOTION_DDOT":"0.0000000000000","RCS_SIZE":"LARGE","APOAPSIS":"548.132","PERIAPSIS":"546.139","INCLINATION":"53.0552","MEAN_MOTION_DOT":"0.00034584","ECCENTRICITY":"0.00014390","GP_ID":"225491275","BSTAR":"0.00232770000000","EPHEMERIS_TYPE":"0","NORAD_CAT_ID":"47668","MEAN_ANOMALY":"278.5873","TIME_SYSTEM":"UTC","REV_AT_EPOCH":"11172","OBJECT_TYPE":"PAYLOAD","FILE":"3793706","MEAN_MOTION":"15.06425384","REF_FRAME":"TEME","RA_OF_ASC_NODE":"31.6472","SEMIMAJOR_AXIS":"6925.271","ARG_OF_PERICENTER":"81.5279","TLE_LINE1":"1 47668U 21012BA  23046.43843300  .00034584  00000-0  23277-2 0  9994","SITE":"AFETR","CENTER_NAME":"EARTH"}];
